E-SPACE_L_00010021-182
1 17381U 24806RT  26075.70003472  .00000000  00000+0  00000-0 0  9992
2 17381  48.0000 200.0000 0000000   0.0000 183.2222 14.95539076    16
E-SPACE_L_00010021-183
1 17382U 23106EA  26075.70003472  .00000000  00000+0  00000-0 0  9995
2 17382  48.0000 200.0000 0000000   0.0000 184.2222 14.95539076    18
E-SPACE_L_00010021-184
1 17383U 26223VC  26075.70003472  .00000000  00000+0  00000-0 0  9999
2 17383  48.0000 200.0000 0000000   0.0000 185.2222 14.95539076    10
E-SPACE_L_00010021-185
1 17384U 23272QE  26075.70003472  .00000000  00000+0  00000-0 0  9991
2 17384  48.0000 200.0000 0000000   0.0000 186.2222 14.95539076    12
E-SPACE_L_00010021-186
1 17385U 23705GZ  26075.70003472  .00000000  00000+0  00000-0 0  9993
2 17385  48.0000 200.0000 0000000   0.0000 187.2222 14.95539076    14
E-SPACE_L_00010021-187
1 17386U 22200OP  26075.70003472  .00000000  00000+0  00000-0 0  9993
2 17386  48.0000 200.0000 0000000   0.0000 188.2222 14.95539076    16
E-SPACE_L_00010021-188
1 17387U 22852IJ  26075.70003472  .00000000  00000+0  00000-0 0  9997
2 17387  48.0000 200.0000 0000000   0.0000 189.2222 14.95539076    18
E-SPACE_L_00010021-189
1 17388U 23679DA  26075.70003472  .00000000  00000+0  00000-0 0  9996
2 17388  48.0000 200.0000 0000000   0.0000 190.2222 14.95539076    11
E-SPACE_L_00010021-190
1 17389U 24193IV  26075.70003472  .00000000  00000+0  00000-0 0  9999
2 17389  48.0000 200.0000 0000000   0.0000 191.2222 14.95539076    13
E-SPACE_L_00010021-191
1 17390U 24728WK  26075.70003472  .00000000  00000+0  00000-0 0  9995
2 17390  48.0000 200.0000 0000000   0.0000 192.2222 14.95539076    16
E-SPACE_L_00010021-192
1 17391U 23293DU  26075.70003472  .00000000  00000+0  00000-0 0  9992
2 17391  48.0000 200.0000 0000000   0.0000 193.2222 14.95539076    18
E-SPACE_L_00010021-193
1 17392U 25567ZR  26075.70003472  .00000000  00000+0  00000-0 0  9999
2 17392  48.0000 200.0000 0000000   0.0000 194.2222 14.95539076    10
E-SPACE_L_00010021-194
1 17393U 26315JX  26075.70003472  .00000000  00000+0  00000-0 0  9992
2 17393  48.0000 200.0000 0000000   0.0000 195.2222 14.95539076    12
E-SPACE_L_00010021-195
1 17394U 23146LP  26075.70003472  .00000000  00000+0  00000-0 0  9992
2 17394  48.0000 200.0000 0000000   0.0000 196.2222 14.95539076    14
E-SPACE_L_00010021-196
1 17395U 22666ZM  26075.70003472  .00000000  00000+0  00000-0 0  9999
2 17395  48.0000 200.0000 0000000   0.0000 197.2222 14.95539076    16
E-SPACE_L_00010021-197
1 17396U 23186AY  26075.70003472  .00000000  00000+0  00000-0 0  9998
2 17396  48.0000 200.0000 0000000   0.0000 198.2222 14.95539076    18
E-SPACE_L_00010021-198
1 17397U 25564FQ  26075.70003472  .00000000  00000+0  00000-0 0  9991
2 17397  48.0000 200.0000 0000000   0.0000 199.2222 14.95539076    10
E-SPACE_L_00010021-199
1 17398U 22802FT  26075.70003472  .00000000  00000+0  00000-0 0  9994
2 17398  48.0000 200.0000 0000000   0.0000 200.2222 14.95539076    14
E-SPACE_L_00010021-200
1 17399U 23996G   26075.70003472  .00000000  00000+0  00000-0 0  9990
2 17399  48.0000 200.0000 0000000   0.0000 201.2222 14.95539076    16
E-SPACE_L_00010021-201
1 17400U 24612ZH  26075.70003472  .00000000  00000+0  00000-0 0  9999
2 17400  48.0000 200.0000 0000000   0.0000 202.2222 14.95539076    10
E-SPACE_L_00010021-202
1 17401U 23012UT  26075.70003472  .00000000  00000+0  00000-0 0  9993
2 17401  48.0000 200.0000 0000000   0.0000 203.2222 14.95539076    12
E-SPACE_L_00010021-203
1 17402U 23127VJ  26075.70003472  .00000000  00000+0  00000-0 0  9991
2 17402  48.0000 200.0000 0000000   0.0000 204.2222 14.95539076    14
E-SPACE_L_00010021-204
1 17403U 26696DC  26075.70003472  .00000000  00000+0  00000-0 0  9996
2 17403  48.0000 200.0000 0000000   0.0000 205.2222 14.95539076    16
E-SPACE_L_00010021-205
1 17404U 25279FE  26075.70003472  .00000000  00000+0  00000-0 0  9993
2 17404  48.0000 200.0000 0000000   0.0000 206.2222 14.95539076    18
E-SPACE_L_00010021-206
1 17405U 26629SP  26075.70003472  .00000000  00000+0  00000-0 0  9994
2 17405  48.0000 200.0000 0000000   0.0000 207.2222 14.95539076    10
E-SPACE_L_00010021-207
1 17406U 22603CZ  26075.70003472  .00000000  00000+0  00000-0 0  9993
2 17406  48.0000 200.0000 0000000   0.0000 208.2222 14.95539076    12
E-SPACE_L_00010021-208
1 17407U 26834ZE  26075.70003472  .00000000  00000+0  00000-0 0  9994
2 17407  48.0000 200.0000 0000000   0.0000 209.2222 14.95539076    14
E-SPACE_L_00010021-209
1 17408U 26130BJ  26075.70003472  .00000000  00000+0  00000-0 0  9994
2 17408  48.0000 200.0000 0000000   0.0000 210.2222 14.95539076    17
E-SPACE_L_00010021-210
1 17409U 25030BT  26075.70003472  .00000000  00000+0  00000-0 0  9993
2 17409  48.0000 200.0000 0000000   0.0000 211.2222 14.95539076    19
E-SPACE_L_00010021-211
1 17410U 25487SH  26075.70003472  .00000000  00000+0  00000-0 0  9991
2 17410  48.0000 200.0000 0000000   0.0000 212.2222 14.95539076    12
E-SPACE_L_00010021-212
1 17411U 25035VM  26075.70003472  .00000000  00000+0  00000-0 0  9991
2 17411  48.0000 200.0000 0000000   0.0000 213.2222 14.95539076    14
E-SPACE_L_00010021-213
1 17412U 26247RC  26075.70003472  .00000000  00000+0  00000-0 0  9998
2 17412  48.0000 200.0000 0000000   0.0000 214.2222 14.95539076    16
E-SPACE_L_00010021-214
1 17413U 22684IY  26075.70003472  .00000000  00000+0  00000-0 0  9990
2 17413  48.0000 200.0000 0000000   0.0000 215.2222 14.95539076    18
E-SPACE_L_00010021-215
1 17414U 23751II  26075.70003472  .00000000  00000+0  00000-0 0  9997
2 17414  48.0000 200.0000 0000000   0.0000 216.2222 14.95539076    10
E-SPACE_L_00010021-216
1 17415U 22958ZO  26075.70003472  .00000000  00000+0  00000-0 0  9996
2 17415  48.0000 200.0000 0000000   0.0000 217.2222 14.95539076    12
E-SPACE_L_00010021-217
1 17416U 22497DY  26075.70003472  .00000000  00000+0  00000-0 0  9995
2 17416  48.0000 200.0000 0000000   0.0000 218.2222 14.95539076    14
E-SPACE_L_00010021-218
1 17417U 22514NE  26075.70003472  .00000000  00000+0  00000-0 0  9996
2 17417  48.0000 200.0000 0000000   0.0000 219.2222 14.95539076    16
E-SPACE_L_00010021-219
1 17418U 25378LY  26075.70003472  .00000000  00000+0  00000-0 0  9998
2 17418  48.0000 200.0000 0000000   0.0000 220.2222 14.95539076    19
E-SPACE_L_00010021-220
1 17419U 24227UO  26075.70003472  .00000000  00000+0  00000-0 0  9991
2 17419  48.0000 200.0000 0000000   0.0000 221.2222 14.95539076    11
E-SPACE_L_00010021-221
1 17420U 26881WJ  26075.70003472  .00000000  00000+0  00000-0 0  9991
2 17420  48.0000 200.0000 0000000   0.0000 222.2222 14.95539076    14
E-SPACE_L_00010021-222
1 17421U 23568YZ  26075.70003472  .00000000  00000+0  00000-0 0  9991
2 17421  48.0000 200.0000 0000000   0.0000 223.2222 14.95539076    16
E-SPACE_L_00010021-223
1 17422U 24265RN  26075.70003472  .00000000  00000+0  00000-0 0  9997
2 17422  48.0000 200.0000 0000000   0.0000 224.2222 14.95539076    18
E-SPACE_L_00010021-224
1 17423U 25562CL  26075.70003472  .00000000  00000+0  00000-0 0  9999
2 17423  48.0000 200.0000 0000000   0.0000 225.2222 14.95539076    10
E-SPACE_L_00010021-225
1 17424U 25655UP  26075.70003472  .00000000  00000+0  00000-0 0  9993
2 17424  48.0000 200.0000 0000000   0.0000 226.2222 14.95539076    12
E-SPACE_L_00010021-226
1 17425U 23376SR  26075.70003472  .00000000  00000+0  00000-0 0  9992
2 17425  48.0000 200.0000 0000000   0.0000 227.2222 14.95539076    14
E-SPACE_L_00010021-227
1 17426U 24326GE  26075.70003472  .00000000  00000+0  00000-0 0  9999
2 17426  48.0000 200.0000 0000000   0.0000 228.2222 14.95539076    16
E-SPACE_L_00010021-228
1 17427U 22786II  26075.70003472  .00000000  00000+0  00000-0 0  9998
2 17427  48.0000 200.0000 0000000   0.0000 229.2222 14.95539076    18
E-SPACE_L_00010021-229
1 17428U 24623TM  26075.70003472  .00000000  00000+0  00000-0 0  9991
2 17428  48.0000 200.0000 0000000   0.0000 230.2222 14.95539076    11
E-SPACE_L_00010021-230
1 17429U 25198L   26075.70003472  .00000000  00000+0  00000-0 0  9990
2 17429  48.0000 200.0000 0000000   0.0000 231.2222 14.95539076    13
E-SPACE_L_00010021-231
1 17430U 22232SO  26075.70003472  .00000000  00000+0  00000-0 0  9998
2 17430  48.0000 200.0000 0000000   0.0000 232.2222 14.95539076    16
E-SPACE_L_00010021-232
1 17431U 26424HO  26075.70003472  .00000000  00000+0  00000-0 0  9996
2 17431  48.0000 200.0000 0000000   0.0000 233.2222 14.95539076    18
E-SPACE_L_00010021-233
1 17432U 22366LE  26075.70003472  .00000000  00000+0  00000-0 0  9998
2 17432  48.0000 200.0000 0000000   0.0000 234.2222 14.95539076    10
E-SPACE_L_00010021-234
1 17433U 26464GJ  26075.70003472  .00000000  00000+0  00000-0 0  9992
2 17433  48.0000 200.0000 0000000   0.0000 235.2222 14.95539076    12
E-SPACE_L_00010021-235
1 17434U 23815CX  26075.70003472  .00000000  00000+0  00000-0 0  9990
2 17434  48.0000 200.0000 0000000   0.0000 236.2222 14.95539076    14
E-SPACE_L_00010021-236
1 17435U 24467DF  26075.70003472  .00000000  00000+0  00000-0 0  9995
2 17435  48.0000 200.0000 0000000   0.0000 237.2222 14.95539076    16
E-SPACE_L_00010021-237
1 17436U 24869VE  26075.70003472  .00000000  00000+0  00000-0 0  9992
2 17436  48.0000 200.0000 0000000   0.0000 238.2222 14.95539076    18
E-SPACE_L_00010021-238
1 17437U 22687XX  26075.70003472  .00000000  00000+0  00000-0 0  9999
2 17437  48.0000 200.0000 0000000   0.0000 239.2222 14.95539076    10
E-SPACE_L_00010021-239
1 17438U 24895OZ  26075.70003472  .00000000  00000+0  00000-0 0  9993
2 17438  48.0000 200.0000 0000000   0.0000 240.2222 14.95539076    13
E-SPACE_L_00010021-240
1 17439U 25887QH  26075.70003472  .00000000  00000+0  00000-0 0  9996
2 17439  48.0000 200.0000 0000000   0.0000 241.2222 14.95539076    15
E-SPACE_L_00010021-241
1 17440U 25912YM  26075.70003472  .00000000  00000+0  00000-0 0  9997
2 17440  48.0000 200.0000 0000000   0.0000 242.2222 14.95539076    18
E-SPACE_L_00010021-242
1 17441U 22623JD  26075.70003472  .00000000  00000+0  00000-0 0  9994
2 17441  48.0000 200.0000 0000000   0.0000 243.2222 14.95539076    10
